[{"OBJECT_NAME":"STARLINK-2703","OBJECT_ID":"2021-040AA","EPOCH":"2026-03-09T13:29:54.148128","MEAN_MOTION":15.3021143,"ECCENTRICITY":0.0001645,"INCLINATION":53.1622,"RA_OF_ASC_NODE":178.7354,"ARG_OF_PERICENTER":114.5451,"MEAN_ANOMALY":245.5721,"EPHEMERIS_TYPE":0,"CLASSIFICATION_TYPE":"U","NORAD_CAT_ID":48452,"ELEMENT_SET_NO":999,"REV_AT_EPOCH":26666,"BSTAR":1.8217e-5,"MEAN_MOTION_DOT":1.8e-6,"MEAN_MOTION_DDOT":0},{"OBJECT_NAME":"NUSHSAT1","OBJECT_ID":"2025-052B","EPOCH":"2026-03-09T15:31:41.225952","MEAN_MOTION":15.31903202,"ECCENTRICITY":0.0005501,"INCLINATION":97.4095,"RA_OF_ASC_NODE":325.7239,"ARG_OF_PERICENTER":84.7512,"MEAN_ANOMALY":275.4357,"EPHEMERIS_TYPE":0,"CLASSIFICATION_TYPE":"U","NORAD_CAT_ID":63211,"ELEMENT_SET_NO":999,"REV_AT_EPOCH":5488,"BSTAR":0.00074857,"MEAN_MOTION_DOT":0.00023034,"MEAN_MOTION_DDOT":0}]
